XRISM                   
1 57800U 23137A   24163.37694177  .00007952  00000+0  59896-3 0  9998
2 57800  31.0047  49.5988 0009277 152.1954 207.9178 15.01164663 41734
